CCSDS_OMM_VERS = 2.0
CREATION_DATE  = 
ORIGINATOR     = 

OBJECT_NAME    = QIANFAN-96
OBJECT_ID      = 2025-233F
CENTER_NAME    = EARTH
REF_FRAME      = TEME
TIME_SYSTEM    = UTC
MEAN_ELEMENT_THEORY = SGP/SGP4

EPOCH          = 2025-11-05T22:00:18.859680
MEAN_MOTION    = 14.26157631
ECCENTRICITY   = .00161388
INCLINATION    = 88.9952
RA_OF_ASC_NODE = 66.2693
ARG_OF_PERICENTER = 151.7008
MEAN_ANOMALY   = 208.5065

EPHEMERIS_TYPE = 0
CLASSIFICATION_TYPE = U
NORAD_CAT_ID   = 66038
ELEMENT_SET_NO = 999
REV_AT_EPOCH   = 279
BSTAR          = .30373131E-3
MEAN_MOTION_DOT = .742E-5
MEAN_MOTION_DDOT = 0

CCSDS_OMM_VERS = 2.0
CREATION_DATE  = 
ORIGINATOR     = 

OBJECT_NAME    = QIANFAN-97
OBJECT_ID      = 2025-233G
CENTER_NAME    = EARTH
REF_FRAME      = TEME
TIME_SYSTEM    = UTC
MEAN_ELEMENT_THEORY = SGP/SGP4

EPOCH          = 2025-11-05T22:00:10.246464
MEAN_MOTION    = 14.26163550
ECCENTRICITY   = .00157073
INCLINATION    = 88.9952
RA_OF_ASC_NODE = 66.2693
ARG_OF_PERICENTER = 151.1682
MEAN_ANOMALY   = 209.0383

EPHEMERIS_TYPE = 0
CLASSIFICATION_TYPE = U
NORAD_CAT_ID   = 66039
ELEMENT_SET_NO = 999
REV_AT_EPOCH   = 279
BSTAR          = .30376451E-3
MEAN_MOTION_DOT = .742E-5
MEAN_MOTION_DDOT = 0

CCSDS_OMM_VERS = 2.0
CREATION_DATE  = 
ORIGINATOR     = 

OBJECT_NAME    = QIANFAN-98
OBJECT_ID      = 2025-233H
CENTER_NAME    = EARTH
REF_FRAME      = TEME
TIME_SYSTEM    = UTC
MEAN_ELEMENT_THEORY = SGP/SGP4

EPOCH          = 2025-11-05T21:59:47.368608
MEAN_MOTION    = 14.26184992
ECCENTRICITY   = .00153427
INCLINATION    = 88.9952
RA_OF_ASC_NODE = 66.2694
ARG_OF_PERICENTER = 149.9249
MEAN_ANOMALY   = 210.2829

EPHEMERIS_TYPE = 0
CLASSIFICATION_TYPE = U
NORAD_CAT_ID   = 66040
ELEMENT_SET_NO = 999
REV_AT_EPOCH   = 279
BSTAR          = .30300252E-3
MEAN_MOTION_DOT = .741E-5
MEAN_MOTION_DDOT = 0

CCSDS_OMM_VERS = 2.0
CREATION_DATE  = 
ORIGINATOR     = 

OBJECT_NAME    = QIANFAN-99
OBJECT_ID      = 2025-233J
CENTER_NAME    = EARTH
REF_FRAME      = TEME
TIME_SYSTEM    = UTC
MEAN_ELEMENT_THEORY = SGP/SGP4

EPOCH          = 2025-11-05T21:59:35.090304
MEAN_MOTION    = 14.26200510
ECCENTRICITY   = .001548
INCLINATION    = 88.9952
RA_OF_ASC_NODE = 66.2692
ARG_OF_PERICENTER = 149.0588
MEAN_ANOMALY   = 211.1521

EPHEMERIS_TYPE = 0
CLASSIFICATION_TYPE = U
NORAD_CAT_ID   = 66041
ELEMENT_SET_NO = 999
REV_AT_EPOCH   = 279
BSTAR          = .30424305E-3
MEAN_MOTION_DOT = .744E-5
MEAN_MOTION_DDOT = 0

CCSDS_OMM_VERS = 2.0
CREATION_DATE  = 
ORIGINATOR     = 

OBJECT_NAME    = QIANFAN-100
OBJECT_ID      = 2025-233K
CENTER_NAME    = EARTH
REF_FRAME      = TEME
TIME_SYSTEM    = UTC
MEAN_ELEMENT_THEORY = SGP/SGP4

EPOCH          = 2025-11-05T21:59:27.710880
MEAN_MOTION    = 14.26216085
ECCENTRICITY   = .00159317
INCLINATION    = 88.9952
RA_OF_ASC_NODE = 66.2693
ARG_OF_PERICENTER = 150.7064
MEAN_ANOMALY   = 209.5026

EPHEMERIS_TYPE = 0
CLASSIFICATION_TYPE = U
NORAD_CAT_ID   = 66042
ELEMENT_SET_NO = 999
REV_AT_EPOCH   = 279
BSTAR          = .30329672E-3
MEAN_MOTION_DOT = .742E-5
MEAN_MOTION_DDOT = 0

CCSDS_OMM_VERS = 2.0
CREATION_DATE  = 
ORIGINATOR     = 

OBJECT_NAME    = QIANFAN-101
OBJECT_ID      = 2025-233L
CENTER_NAME    = EARTH
REF_FRAME      = TEME
TIME_SYSTEM    = UTC
MEAN_ELEMENT_THEORY = SGP/SGP4

EPOCH          = 2025-11-05T21:55:30.942048
MEAN_MOTION    = 14.26636087
ECCENTRICITY   = .00158828
INCLINATION    = 88.9952
RA_OF_ASC_NODE = 66.2688
ARG_OF_PERICENTER = 148.9341
MEAN_ANOMALY   = 211.2795

EPHEMERIS_TYPE = 0
CLASSIFICATION_TYPE = U
NORAD_CAT_ID   = 66043
ELEMENT_SET_NO = 999
REV_AT_EPOCH   = 279
BSTAR          = .1823141E-3
MEAN_MOTION_DOT = .455E-5
MEAN_MOTION_DDOT = 0

CCSDS_OMM_VERS = 2.0
CREATION_DATE  = 
ORIGINATOR     = 

OBJECT_NAME    = QIANFAN-102
OBJECT_ID      = 2025-233M
CENTER_NAME    = EARTH
REF_FRAME      = TEME
TIME_SYSTEM    = UTC
MEAN_ELEMENT_THEORY = SGP/SGP4

EPOCH          = 2025-11-05T21:59:18.345984
MEAN_MOTION    = 14.26220310
ECCENTRICITY   = .00162983
INCLINATION    = 88.9952
RA_OF_ASC_NODE = 66.2692
ARG_OF_PERICENTER = 150.8003
MEAN_ANOMALY   = 209.4105

EPHEMERIS_TYPE = 0
CLASSIFICATION_TYPE = U
NORAD_CAT_ID   = 66044
ELEMENT_SET_NO = 999
REV_AT_EPOCH   = 279
BSTAR          = .3079649E-3
MEAN_MOTION_DOT = .753E-5
MEAN_MOTION_DDOT = 0

CCSDS_OMM_VERS = 2.0
CREATION_DATE  = 
ORIGINATOR     = 

OBJECT_NAME    = QIANFAN-103
OBJECT_ID      = 2025-233N
CENTER_NAME    = EARTH
REF_FRAME      = TEME
TIME_SYSTEM    = UTC
MEAN_ELEMENT_THEORY = SGP/SGP4

EPOCH          = 2025-11-05T21:58:51.107520
MEAN_MOTION    = 14.26249556
ECCENTRICITY   = .00156879
INCLINATION    = 88.9952
RA_OF_ASC_NODE = 66.2693
ARG_OF_PERICENTER = 149.5884
MEAN_ANOMALY   = 210.6223

EPHEMERIS_TYPE = 0
CLASSIFICATION_TYPE = U
NORAD_CAT_ID   = 66045
ELEMENT_SET_NO = 999
REV_AT_EPOCH   = 279
BSTAR          = .31236274E-3
MEAN_MOTION_DOT = .764E-5
MEAN_MOTION_DDOT = 0

CCSDS_OMM_VERS = 2.0
CREATION_DATE  = 
ORIGINATOR     = 

OBJECT_NAME    = QIANFAN-104
OBJECT_ID      = 2025-233P
CENTER_NAME    = EARTH
REF_FRAME      = TEME
TIME_SYSTEM    = UTC
MEAN_ELEMENT_THEORY = SGP/SGP4

EPOCH          = 2025-11-05T21:58:31.130112
MEAN_MOTION    = 14.26270305
ECCENTRICITY   = .00156715
INCLINATION    = 88.9952
RA_OF_ASC_NODE = 66.2693
ARG_OF_PERICENTER = 151.8376
MEAN_ANOMALY   = 208.3669

EPHEMERIS_TYPE = 0
CLASSIFICATION_TYPE = U
NORAD_CAT_ID   = 66046
ELEMENT_SET_NO = 999
REV_AT_EPOCH   = 279
BSTAR          = .31181921E-3
MEAN_MOTION_DOT = .763E-5
MEAN_MOTION_DDOT = 0

CCSDS_OMM_VERS = 2.0
CREATION_DATE  = 
ORIGINATOR     = 

OBJECT_NAME    = QIANFAN-105
OBJECT_ID      = 2025-233Q
CENTER_NAME    = EARTH
REF_FRAME      = TEME
TIME_SYSTEM    = UTC
MEAN_ELEMENT_THEORY = SGP/SGP4

EPOCH          = 2025-11-05T21:57:55.779552
MEAN_MOTION    = 14.26328590
ECCENTRICITY   = .00158655
INCLINATION    = 88.9952
RA_OF_ASC_NODE = 66.2690
ARG_OF_PERICENTER = 151.9716
MEAN_ANOMALY   = 208.2336

EPHEMERIS_TYPE = 0
CLASSIFICATION_TYPE = U
NORAD_CAT_ID   = 66047
ELEMENT_SET_NO = 999
REV_AT_EPOCH   = 279
BSTAR          = .30226851E-3
MEAN_MOTION_DOT = .741E-5
MEAN_MOTION_DDOT = 0

CCSDS_OMM_VERS = 2.0
CREATION_DATE  = 
ORIGINATOR     = 

OBJECT_NAME    = QIANFAN-106
OBJECT_ID      = 2025-233R
CENTER_NAME    = EARTH
REF_FRAME      = TEME
TIME_SYSTEM    = UTC
MEAN_ELEMENT_THEORY = SGP/SGP4

EPOCH          = 2025-11-05T21:57:58.622112
MEAN_MOTION    = 14.26311943
ECCENTRICITY   = .00157357
INCLINATION    = 88.9952
RA_OF_ASC_NODE = 66.2691
ARG_OF_PERICENTER = 151.6457
MEAN_ANOMALY   = 208.5597

EPHEMERIS_TYPE = 0
CLASSIFICATION_TYPE = U
NORAD_CAT_ID   = 66048
ELEMENT_SET_NO = 999
REV_AT_EPOCH   = 279
BSTAR          = .30288285E-3
MEAN_MOTION_DOT = .742E-5
MEAN_MOTION_DDOT = 0

CCSDS_OMM_VERS = 2.0
CREATION_DATE  = 
ORIGINATOR     = 

OBJECT_NAME    = QIANFAN-107
OBJECT_ID      = 2025-233S
CENTER_NAME    = EARTH
REF_FRAME      = TEME
TIME_SYSTEM    = UTC
MEAN_ELEMENT_THEORY = SGP/SGP4

EPOCH          = 2025-11-05T21:57:39.888864
MEAN_MOTION    = 14.26340819
ECCENTRICITY   = .00165213
INCLINATION    = 88.9951
RA_OF_ASC_NODE = 66.2690
ARG_OF_PERICENTER = 149.8089
MEAN_ANOMALY   = 210.4060

EPHEMERIS_TYPE = 0
CLASSIFICATION_TYPE = U
NORAD_CAT_ID   = 66049
ELEMENT_SET_NO = 999
REV_AT_EPOCH   = 279
BSTAR          = .30154253E-3
MEAN_MOTION_DOT = .739E-5
MEAN_MOTION_DDOT = 0

